OBJECT_NAME,OBJECT_ID,EPOCH,MEAN_MOTION,ECCENTRICITY,INCLINATION,RA_OF_ASC_NODE,ARG_OF_PERICENTER,MEAN_ANOMALY,EPHEMERIS_TYPE,CLASSIFICATION_TYPE,NORAD_CAT_ID,ELEMENT_SET_NO,REV_AT_EPOCH,BSTAR,MEAN_MOTION_DOT,MEAN_MOTION_DDOT
FENGYUN 3D,2017-072A,2026-06-27T22:19:11.572320,14.19740774,.00022659,99.0124,153.5464,46.1210,314.0152,0,U,43010,999,44651,-.2504187E-4,-.99E-6,0
NOAA 20 (JPSS-1),2017-073A,2026-06-27T22:14:28.275360,14.19513600,.00006716,98.7773,118.2939,134.3443,225.7789,0,U,43013,999,44599,.42887692E-4,.46E-6,0
GOES 17,2018-022A,2026-06-27T22:20:48.738624,1.00272570,.00007241,0.9636,85.5385,25.3521,50.8405,0,U,43226,999,3053,0,-.172E-5,0
SENTINEL-3B,2018-039A,2026-06-27T22:04:12.073152,14.26737598,.00007684,98.6246,246.2978,109.6830,250.4433,0,U,43437,999,42565,.59665854E-4,.101E-5,0
FENGYUN 2H,2018-050A,2026-06-27T23:08:55.688352,1.00269784,.00017106,3.0590,78.9549,122.4596,141.2155,0,U,43491,999,2954,0,-.12E-5,0
METOP-C,2018-087A,2026-06-27T20:05:43.564128,14.21514787,.00020639,98.6640,238.2461,116.1245,244.0145,0,U,43689,999,39634,.65870435E-4,.101E-5,0
GEO-KOMPSAT-2A,2018-100A,2026-06-27T21:40:15.957408,1.00272315,.00023809,0.0435,137.1550,312.4374,279.7477,0,U,43823,999,2773,0,-.332E-5,0
METEOR-M2 2,2019-038A,2026-06-27T22:07:47.545248,14.24368909,.00016063,98.9144,166.3657,33.2392,326.8887,0,U,44387,999,36282,.41977441E-4,.51E-6,0
ARKTIKA-M 1,2021-016A,2026-06-26T23:04:08.221728,2.00619221,.72918394,63.2527,56.2167,269.9811,14.5584,0,U,47719,999,3898,0,-.323E-5,0
FENGYUN 3E,2021-062A,2026-06-27T23:35:42.781920,14.19905591,.00027522,98.7492,182.2705,69.2619,290.8852,0,U,49008,999,25811,.7592199E-4,.117E-5,0
GOES 18,2022-021A,2026-06-27T22:07:05.884032,1.00273499,.00007032,0.0094,257.2434,232.1588,341.3993,0,U,51850,999,670,0,.108E-5,0
NOAA 21 (JPSS-2),2022-150A,2026-06-27T23:01:22.877184,14.19538353,.000226,98.7061,117.5676,135.8765,224.2592,0,U,54234,999,18807,.39426169E-4,.4E-6,0
METEOSAT-12 (MTG-I1),2022-170C,2026-06-27T22:15:38.750112,1.00275638,.00036805,0.7500,24.6820,72.2185,152.7271,0,U,54743,999,1308,0,.4E-7,0
TIANMU-1 03,2023-039A,2026-06-27T21:56:12.661152,15.47581355,.00039341,97.5228,353.3054,73.4515,286.7167,0,U,55973,999,18249,.29286129E-3,.15002E-3,0
TIANMU-1 04,2023-039B,2026-06-27T23:08:07.446048,15.48193363,.0004322,97.5168,352.5116,66.3098,293.8605,0,U,55974,999,18251,.30319328E-3,.15871E-3,0
TIANMU-1 05,2023-039C,2026-06-27T23:02:22.830144,15.47508432,.00038827,97.5211,352.9640,88.4115,271.7580,0,U,55975,999,18248,.29919346E-3,.1529E-3,0
TIANMU-1 06,2023-039D,2026-06-27T23:13:57.893952,15.48093876,.00040962,97.5220,353.6188,83.7719,276.3998,0,U,55976,999,18251,.29341256E-3,.15301E-3,0
FENGYUN 3G,2023-055A,2026-06-27T20:27:56.699712,15.53092022,.00072412,49.9934,291.0490,340.8225,19.2468,0,U,56232,999,18166,.37810751E-3,.23763E-3,0
METEOR-M2 3,2023-091A,2026-06-27T22:03:09.719136,14.24047580,.00048582,98.6078,233.6775,129.3488,230.8122,0,U,57166,999,15604,.16972398E-4,-.4E-7,0
TIANMU-1 07,2023-101A,2026-06-27T22:59:14.460864,15.29928623,.00043568,97.2591,229.3789,99.7337,260.4396,0,U,57399,999,16329,.218653E-3,.6263E-4,0
TIANMU-1 08,2023-101B,2026-06-27T22:11:09.741120,15.29932750,.00056394,97.2580,229.1153,89.3558,270.8329,0,U,57400,999,16328,.21447186E-3,.6144E-4,0
TIANMU-1 09,2023-101C,2026-06-27T23:21:07.969824,15.29968250,.00048947,97.2538,228.5731,102.8509,257.3279,0,U,57401,999,16329,.2215373E-3,.6355E-4,0
TIANMU-1 10,2023-101D,2026-06-27T22:34:49.535040,15.29940047,.00064383,97.2617,229.6031,98.9181,261.2789,0,U,57402,999,16328,.22741092E-3,.6521E-4,0
FENGYUN 3F,2023-111A,2026-06-27T23:12:11.270304,14.19940799,.00015414,98.6834,248.7746,85.3444,274.7908,0,U,57490,999,15039,.43137543E-4,.48E-6,0
ARKTIKA-M 2,2023-198A,2026-06-26T05:35:41.970624,2.00610703,.69048743,63.2200,153.3551,267.3978,18.7558,0,U,58584,999,1850,0,.156E-5,0
TIANMU-1 11,2023-205A,2026-06-27T23:55:14.666592,15.27102909,.00076415,97.3441,200.3840,337.4996,22.5907,0,U,58645,999,13917,.21349329E-3,.5606E-4,0
TIANMU-1 12,2023-205B,2026-06-27T21:38:39.428736,15.26997637,.00056163,97.3431,200.0443,317.9001,42.1806,0,U,58646,999,13914,.14266311E-3,.3708E-4,0
TIANMU-1 13,2023-205C,2026-06-28T00:00:45.540576,15.26922967,.00050049,97.3458,200.4156,292.9765,67.0945,0,U,58647,999,13915,.22263803E-3,.5815E-4,0
TIANMU-1 14,2023-205D,2026-06-27T22:04:38.091648,15.26966724,.00058854,97.3394,199.5096,299.5208,60.5444,0,U,58648,999,13914,.21163409E-3,.5532E-4,0
TIANMU-1 19,2023-208A,2026-06-27T22:27:48.088800,15.31730900,.00034409,97.4513,295.2915,275.6687,84.4162,0,U,58660,999,13897,.27427998E-3,.8327E-4,0
