FENGYUN 3D              
1 43010U 17072A   26178.92999505 -.00000099  00000+0 -25042-4 0  9993
2 43010  99.0124 153.5464 0002265  46.1210 314.0152 14.19740774446512
NOAA 20 (JPSS-1)        
1 43013U 17073A   26178.92671615  .00000046  00000+0  42888-4 0  9993
2 43013  98.7773 118.2939 0000671 134.3443 225.7789 14.19513600445994
GOES 17                 
1 43226U 18022A   26178.93111966 -.00000172  00000+0  00000+0 0  9999
2 43226   0.9636  85.5385 0000724  25.3521  50.8405  1.00272570 30535
SENTINEL-3B             
1 43437U 18039A   26178.91958418  .00000101  00000+0  59666-4 0  9998
2 43437  98.6246 246.2978 0000768 109.6830 250.4433 14.26737598425659
FENGYUN 2H              
1 43491U 18050A   26178.96453343 -.00000120  00000+0  00000+0 0  9998
2 43491   3.0590  78.9549 0001710 122.4596 141.2155  1.00269784 29546
METOP-C                 
1 43689U 18087A   26178.83730977  .00000101  00000+0  65870-4 0  9993
2 43689  98.6640 238.2461 0002063 116.1245 244.0145 14.21514787396347
GEO-KOMPSAT-2A          
1 43823U 18100A   26178.90296247 -.00000332  00000+0  00000+0 0  9990
2 43823   0.0435 137.1550 0002380 312.4374 279.7477  1.00272315 27736
METEOR-M2 2             
1 44387U 19038A   26178.92207807  .00000051  00000+0  41977-4 0  9993
2 44387  98.9144 166.3657 0001606  33.2392 326.8887 14.24368909362821
ARKTIKA-M 1             
1 47719U 21016A   26177.96120627 -.00000323  00000+0  00000+0 0  9991
2 47719  63.2527  56.2167 7291839 269.9811  14.5584  2.00619221 38985
FENGYUN 3E              
1 49008U 21062A   26178.98313405  .00000117  00000+0  75922-4 0  9996
2 49008  98.7492 182.2705 0002752  69.2619 290.8852 14.19905591258111
GOES 18                 
1 51850U 22021A   26178.92159588  .00000108  00000+0  00000+0 0  9994
2 51850   0.0094 257.2434 0000703 232.1588 341.3993  1.00273499  6700
NOAA 21 (JPSS-2)        
1 54234U 22150A   26178.95929256  .00000040  00000+0  39426-4 0  9990
2 54234  98.7061 117.5676 0002260 135.8765 224.2592 14.19538353188071
METEOSAT-12 (MTG-I1)    
1 54743U 22170C   26178.92753183  .00000004  00000+0  00000+0 0  9999
2 54743   0.7500  24.6820 0003680  72.2185 152.7271  1.00275638 13080
TIANMU-1 03             
1 55973U 23039A   26178.91403543  .00015002  00000+0  29286-3 0  9996
2 55973  97.5228 353.3054 0003934  73.4515 286.7167 15.47581355182496
TIANMU-1 04             
1 55974U 23039B   26178.96397507  .00015871  00000+0  30319-3 0  9997
2 55974  97.5168 352.5116 0004322  66.3098 293.8605 15.48193363182517
TIANMU-1 05             
1 55975U 23039C   26178.95998646  .00015290  00000+0  29919-3 0  9997
2 55975  97.5211 352.9640 0003882  88.4115 271.7580 15.47508432182487
TIANMU-1 06             
1 55976U 23039D   26178.96803118  .00015301  00000+0  29341-3 0  9990
2 55976  97.5220 353.6188 0004096  83.7719 276.3998 15.48093876182519
FENGYUN 3G              
1 56232U 23055A   26178.85273958  .00023763  00000+0  37811-3 0  9997
2 56232  49.9934 291.0490 0007241 340.8225  19.2468 15.53092022181662
METEOR-M2 3             
1 57166U 23091A   26178.91886249 -.00000004  00000+0  16972-4 0  9994
2 57166  98.6078 233.6775 0004858 129.3488 230.8122 14.24047580156047
TIANMU-1 07             
1 57399U 23101A   26178.95780626  .00006263  00000+0  21865-3 0  9998
2 57399  97.2591 229.3789 0004356  99.7337 260.4396 15.29928623163292
TIANMU-1 08             
1 57400U 23101B   26178.92441830  .00006144  00000+0  21447-3 0  9993
2 57400  97.2580 229.1153 0005639  89.3558 270.8329 15.29932750163287
TIANMU-1 09             
1 57401U 23101C   26178.97300891  .00006355  00000+0  22154-3 0  9990
2 57401  97.2538 228.5731 0004894 102.8509 257.3279 15.29968250163294
TIANMU-1 10             
1 57402U 23101D   26178.94085110  .00006521  00000+0  22741-3 0  9999
2 57402  97.2617 229.6031 0006438  98.9181 261.2789 15.29940047163288
FENGYUN 3F              
1 57490U 23111A   26178.96679711  .00000048  00000+0  43138-4 0  9997
2 57490  98.6834 248.7746 0001541  85.3444 274.7908 14.19940799150390
ARKTIKA-M 2             
1 58584U 23198A   26177.23312466  .00000156  00000+0  00000+0 0  9993
2 58584  63.2200 153.3551 6904874 267.3978  18.7558  2.00610703 18505
TIANMU-1 11             
1 58645U 23205A   26178.99669753  .00005606  00000+0  21349-3 0  9996
2 58645  97.3441 200.3840 0007641 337.4996  22.5907 15.27102909139176
TIANMU-1 12             
1 58646U 23205B   26178.90184524  .00003708  00000+0  14266-3 0  9997
2 58646  97.3431 200.0443 0005616 317.9001  42.1806 15.26997637139144
TIANMU-1 13             
1 58647U 23205C   26179.00052709  .00005815  00000+0  22264-3 0  9997
2 58647  97.3458 200.4156 0005004 292.9765  67.0945 15.26922967139154
TIANMU-1 14             
1 58648U 23205D   26178.91988532  .00005532  00000+0  21163-3 0  9992
2 58648  97.3394 199.5096 0005885 299.5208  60.5444 15.26966724139147
TIANMU-1 19             
1 58660U 23208A   26178.93597325  .00008327  00000+0  27428-3 0  9992
2 58660  97.4513 295.2915 0003440 275.6687  84.4162 15.31730900138973
